{"features":[{"geometry":{"coordinates":[[[-90.7250461,37.542787],[-90.095693,37.542787],[-90.095693,38.1273109],[-90.7250461,38.1273109],[-90.7250461,37.542787]]],"type":"Polygon"},"id":"mo-farmington-browser-region-v1","properties":{"absence_semantic":"NO_KNOWN_RECORDS_ONLY","label":"Farmington, Missouri regional data package","navigation_available":true,"region_id":"mo-farmington-browser-region-v1","snapshot_date":"2026-08-10","status":"SUPPORTED","surveillance_available":true,"surveillance_completeness":"UNKNOWN"},"type":"Feature"}],"metadata":{"graph_sha256":"decc434fc3e94ad80057fb56c8a7a42c6f47b85b082bccac84124008f74055c1","schema":"wayveil-public-coverage-v1","snapshot_date":"2026-08-10","source":"WayVeil accepted regional graph bounds"},"type":"FeatureCollection"}