{"features":[{"geometry":{"coordinates":[-90.2998752,38.0897276],"type":"Point"},"id":"osm-node-12389273526","properties":{"confidence":0.75,"id":"osm-node-12389273526","last_confirmed":"UNKNOWN","source":"OpenStreetMap/Overpass","status":"ACTIVE","type":"ALPR","vendor":"Flock Safety","verification_state":"PROBABLE"},"type":"Feature"},{"geometry":{"coordinates":[-90.2241385,38.0050287],"type":"Point"},"id":"osm-node-12463200581","properties":{"confidence":0.75,"id":"osm-node-12463200581","last_confirmed":"UNKNOWN","source":"OpenStreetMap/Overpass","status":"ACTIVE","type":"ALPR","vendor":"Flock Safety","verification_state":"PROBABLE"},"type":"Feature"},{"geometry":{"coordinates":[-90.1206522,37.9364297],"type":"Point"},"id":"osm-node-12824718530","properties":{"confidence":0.75,"id":"osm-node-12824718530","last_confirmed":"UNKNOWN","source":"OpenStreetMap/Overpass","status":"ACTIVE","type":"ALPR","vendor":"Flock Safety","verification_state":"PROBABLE"},"type":"Feature"},{"geometry":{"coordinates":[-90.4011972,37.7067088],"type":"Point"},"id":"osm-node-12829487345","properties":{"confidence":0.75,"id":"osm-node-12829487345","last_confirmed":"UNKNOWN","source":"OpenStreetMap/Overpass","status":"ACTIVE","type":"ALPR","vendor":"Flock Safety","verification_state":"PROBABLE"},"type":"Feature"},{"geometry":{"coordinates":[-90.5090942,37.8779262],"type":"Point"},"id":"osm-node-12834900663","properties":{"confidence":0.75,"id":"osm-node-12834900663","last_confirmed":"UNKNOWN","source":"OpenStreetMap/Overpass","status":"ACTIVE","type":"ALPR","vendor":"Flock Safety","verification_state":"PROBABLE"},"type":"Feature"},{"geometry":{"coordinates":[-90.4030649,37.7773123],"type":"Point"},"id":"osm-node-12975357974","properties":{"confidence":0.75,"id":"osm-node-12975357974","last_confirmed":"UNKNOWN","source":"OpenStreetMap/Overpass","status":"ACTIVE","type":"ALPR","vendor":"Flock Safety","verification_state":"PROBABLE"},"type":"Feature"},{"geometry":{"coordinates":[-90.419952,37.7864754],"type":"Point"},"id":"osm-node-12976072078","properties":{"confidence":0.75,"id":"osm-node-12976072078","last_confirmed":"UNKNOWN","source":"OpenStreetMap/Overpass","status":"ACTIVE","type":"ALPR","vendor":"Flock Safety","verification_state":"PROBABLE"},"type":"Feature"},{"geometry":{"coordinates":[-90.3505862,37.792736],"type":"Point"},"id":"osm-node-12983139689","properties":{"confidence":0.75,"id":"osm-node-12983139689","last_confirmed":"UNKNOWN","source":"OpenStreetMap/Overpass","status":"ACTIVE","type":"ALPR","vendor":"Flock Safety","verification_state":"PROBABLE"},"type":"Feature"},{"geometry":{"coordinates":[-90.4450218,37.771639],"type":"Point"},"id":"osm-node-13172031892","properties":{"confidence":0.75,"id":"osm-node-13172031892","last_confirmed":"UNKNOWN","source":"OpenStreetMap/Overpass","status":"ACTIVE","type":"ALPR","vendor":"Flock Safety","verification_state":"PROBABLE"},"type":"Feature"},{"geometry":{"coordinates":[-90.3582846,37.9694155],"type":"Point"},"id":"osm-node-13337644201","properties":{"confidence":0.75,"id":"osm-node-13337644201","last_confirmed":"UNKNOWN","source":"OpenStreetMap/Overpass","status":"ACTIVE","type":"ALPR","vendor":"Flock Safety","verification_state":"PROBABLE"},"type":"Feature"},{"geometry":{"coordinates":[-90.4422849,37.7962504],"type":"Point"},"id":"osm-node-13339534601","properties":{"confidence":0.75,"id":"osm-node-13339534601","last_confirmed":"UNKNOWN","source":"OpenStreetMap/Overpass","status":"ACTIVE","type":"ALPR","vendor":"Flock Safety","verification_state":"PROBABLE"},"type":"Feature"},{"geometry":{"coordinates":[-90.4296704,37.7892765],"type":"Point"},"id":"osm-node-13340758601","properties":{"confidence":0.75,"id":"osm-node-13340758601","last_confirmed":"UNKNOWN","source":"OpenStreetMap/Overpass","status":"ACTIVE","type":"ALPR","vendor":"Flock Safety","verification_state":"PROBABLE"},"type":"Feature"},{"geometry":{"coordinates":[-90.4417505,37.7730019],"type":"Point"},"id":"osm-node-13341747101","properties":{"confidence":0.75,"id":"osm-node-13341747101","last_confirmed":"UNKNOWN","source":"OpenStreetMap/Overpass","status":"ACTIVE","type":"ALPR","vendor":"Flock Safety","verification_state":"PROBABLE"},"type":"Feature"},{"geometry":{"coordinates":[-90.4368077,37.7933711],"type":"Point"},"id":"osm-node-13341749301","properties":{"confidence":0.75,"id":"osm-node-13341749301","last_confirmed":"UNKNOWN","source":"OpenStreetMap/Overpass","status":"ACTIVE","type":"ALPR","vendor":"Flock Safety","verification_state":"PROBABLE"},"type":"Feature"},{"geometry":{"coordinates":[-90.4017288,37.7066399],"type":"Point"},"id":"osm-node-13341749302","properties":{"confidence":0.75,"id":"osm-node-13341749302","last_confirmed":"UNKNOWN","source":"OpenStreetMap/Overpass","status":"ACTIVE","type":"ALPR","vendor":"Flock Safety","verification_state":"PROBABLE"},"type":"Feature"},{"geometry":{"coordinates":[-90.4409891,37.7888396],"type":"Point"},"id":"osm-node-13341750302","properties":{"confidence":0.75,"id":"osm-node-13341750302","last_confirmed":"UNKNOWN","source":"OpenStreetMap/Overpass","status":"ACTIVE","type":"ALPR","vendor":"Flock Safety","verification_state":"PROBABLE"},"type":"Feature"},{"geometry":{"coordinates":[-90.4409891,37.7888396],"type":"Point"},"id":"osm-node-13341750303","properties":{"confidence":0.75,"id":"osm-node-13341750303","last_confirmed":"UNKNOWN","source":"OpenStreetMap/Overpass","status":"ACTIVE","type":"ALPR","vendor":"Flock Safety","verification_state":"PROBABLE"},"type":"Feature"},{"geometry":{"coordinates":[-90.4191782,37.7728836],"type":"Point"},"id":"osm-node-13341750304","properties":{"confidence":0.75,"id":"osm-node-13341750304","last_confirmed":"UNKNOWN","source":"OpenStreetMap/Overpass","status":"ACTIVE","type":"ALPR","vendor":"Flock Safety","verification_state":"PROBABLE"},"type":"Feature"},{"geometry":{"coordinates":[-90.4192608,37.799648],"type":"Point"},"id":"osm-node-13341759101","properties":{"confidence":0.75,"id":"osm-node-13341759101","last_confirmed":"UNKNOWN","source":"OpenStreetMap/Overpass","status":"ACTIVE","type":"ALPR","vendor":"Flock Safety","verification_state":"PROBABLE"},"type":"Feature"},{"geometry":{"coordinates":[-90.3995877,37.7994389],"type":"Point"},"id":"osm-node-13341759501","properties":{"confidence":0.75,"id":"osm-node-13341759501","last_confirmed":"UNKNOWN","source":"OpenStreetMap/Overpass","status":"ACTIVE","type":"ALPR","vendor":"Flock Safety","verification_state":"PROBABLE"},"type":"Feature"},{"geometry":{"coordinates":[-90.3995877,37.7994389],"type":"Point"},"id":"osm-node-13341759601","properties":{"confidence":0.75,"id":"osm-node-13341759601","last_confirmed":"UNKNOWN","source":"OpenStreetMap/Overpass","status":"ACTIVE","type":"ALPR","vendor":"Flock Safety","verification_state":"PROBABLE"},"type":"Feature"},{"geometry":{"coordinates":[-90.4848811,37.8395687],"type":"Point"},"id":"osm-node-13341760801","properties":{"confidence":0.75,"id":"osm-node-13341760801","last_confirmed":"UNKNOWN","source":"OpenStreetMap/Overpass","status":"ACTIVE","type":"ALPR","vendor":"Flock Safety","verification_state":"PROBABLE"},"type":"Feature"},{"geometry":{"coordinates":[-90.4978686,37.8639221],"type":"Point"},"id":"osm-node-13341760802","properties":{"confidence":0.75,"id":"osm-node-13341760802","last_confirmed":"UNKNOWN","source":"OpenStreetMap/Overpass","status":"ACTIVE","type":"ALPR","vendor":"Flock Safety","verification_state":"PROBABLE"},"type":"Feature"},{"geometry":{"coordinates":[-90.4922852,37.8411828],"type":"Point"},"id":"osm-node-13341763701","properties":{"confidence":0.75,"id":"osm-node-13341763701","last_confirmed":"UNKNOWN","source":"OpenStreetMap/Overpass","status":"ACTIVE","type":"ALPR","vendor":"Flock Safety","verification_state":"PROBABLE"},"type":"Feature"},{"geometry":{"coordinates":[-90.4922852,37.8411828],"type":"Point"},"id":"osm-node-13341763901","properties":{"confidence":0.75,"id":"osm-node-13341763901","last_confirmed":"UNKNOWN","source":"OpenStreetMap/Overpass","status":"ACTIVE","type":"ALPR","vendor":"Flock Safety","verification_state":"PROBABLE"},"type":"Feature"},{"geometry":{"coordinates":[-90.5131358,37.84665],"type":"Point"},"id":"osm-node-13341765001","properties":{"confidence":0.75,"id":"osm-node-13341765001","last_confirmed":"UNKNOWN","source":"OpenStreetMap/Overpass","status":"ACTIVE","type":"ALPR","vendor":"Flock Safety","verification_state":"PROBABLE"},"type":"Feature"},{"geometry":{"coordinates":[-90.4946065,37.8503503],"type":"Point"},"id":"osm-node-13341765002","properties":{"confidence":0.75,"id":"osm-node-13341765002","last_confirmed":"UNKNOWN","source":"OpenStreetMap/Overpass","status":"ACTIVE","type":"ALPR","vendor":"Flock Safety","verification_state":"PROBABLE"},"type":"Feature"},{"geometry":{"coordinates":[-90.5009675,37.8632931],"type":"Point"},"id":"osm-node-13341767001","properties":{"confidence":0.75,"id":"osm-node-13341767001","last_confirmed":"UNKNOWN","source":"OpenStreetMap/Overpass","status":"ACTIVE","type":"ALPR","vendor":"Flock Safety","verification_state":"PROBABLE"},"type":"Feature"},{"geometry":{"coordinates":[-90.4946065,37.8503503],"type":"Point"},"id":"osm-node-13341767401","properties":{"confidence":0.75,"id":"osm-node-13341767401","last_confirmed":"UNKNOWN","source":"OpenStreetMap/Overpass","status":"ACTIVE","type":"ALPR","vendor":"Flock Safety","verification_state":"PROBABLE"},"type":"Feature"},{"geometry":{"coordinates":[-90.5114728,37.881228],"type":"Point"},"id":"osm-node-13341768301","properties":{"confidence":0.75,"id":"osm-node-13341768301","last_confirmed":"UNKNOWN","source":"OpenStreetMap/Overpass","status":"ACTIVE","type":"ALPR","vendor":"Flock Safety","verification_state":"PROBABLE"},"type":"Feature"},{"geometry":{"coordinates":[-90.5114728,37.881228],"type":"Point"},"id":"osm-node-13341769201","properties":{"confidence":0.75,"id":"osm-node-13341769201","last_confirmed":"UNKNOWN","source":"OpenStreetMap/Overpass","status":"ACTIVE","type":"ALPR","vendor":"Flock Safety","verification_state":"PROBABLE"},"type":"Feature"},{"geometry":{"coordinates":[-90.5092301,37.8815925],"type":"Point"},"id":"osm-node-13341770001","properties":{"confidence":0.75,"id":"osm-node-13341770001","last_confirmed":"UNKNOWN","source":"OpenStreetMap/Overpass","status":"ACTIVE","type":"ALPR","vendor":"Flock Safety","verification_state":"PROBABLE"},"type":"Feature"},{"geometry":{"coordinates":[-90.4451739,37.7569564],"type":"Point"},"id":"osm-node-13343183301","properties":{"confidence":0.75,"id":"osm-node-13343183301","last_confirmed":"UNKNOWN","source":"OpenStreetMap/Overpass","status":"ACTIVE","type":"ALPR","vendor":"Flock Safety","verification_state":"PROBABLE"},"type":"Feature"},{"geometry":{"coordinates":[-90.4283623,37.8079589],"type":"Point"},"id":"osm-node-13357828901","properties":{"confidence":0.75,"id":"osm-node-13357828901","last_confirmed":"UNKNOWN","source":"OpenStreetMap/Overpass","status":"ACTIVE","type":"ALPR","vendor":"Flock Safety","verification_state":"PROBABLE"},"type":"Feature"},{"geometry":{"coordinates":[-90.3683066,38.0816106],"type":"Point"},"id":"osm-node-13475262301","properties":{"confidence":0.75,"id":"osm-node-13475262301","last_confirmed":"UNKNOWN","source":"OpenStreetMap/Overpass","status":"ACTIVE","type":"ALPR","vendor":"Flock Safety","verification_state":"PROBABLE"},"type":"Feature"},{"geometry":{"coordinates":[-90.4848658,38.0221938],"type":"Point"},"id":"osm-node-13477910201","properties":{"confidence":0.75,"id":"osm-node-13477910201","last_confirmed":"UNKNOWN","source":"OpenStreetMap/Overpass","status":"ACTIVE","type":"ALPR","vendor":"Flock Safety","verification_state":"PROBABLE"},"type":"Feature"},{"geometry":{"coordinates":[-90.334675,37.5954975],"type":"Point"},"id":"osm-node-13477927501","properties":{"confidence":0.75,"id":"osm-node-13477927501","last_confirmed":"UNKNOWN","source":"OpenStreetMap/Overpass","status":"ACTIVE","type":"ALPR","vendor":"Flock Safety","verification_state":"PROBABLE"},"type":"Feature"},{"geometry":{"coordinates":[-90.6225913,37.7703625],"type":"Point"},"id":"osm-node-13608381801","properties":{"confidence":0.75,"id":"osm-node-13608381801","last_confirmed":"UNKNOWN","source":"OpenStreetMap/Overpass","status":"ACTIVE","type":"ALPR","vendor":"Flock Safety","verification_state":"PROBABLE"},"type":"Feature"},{"geometry":{"coordinates":[-90.6230823,37.7699792],"type":"Point"},"id":"osm-node-13608382101","properties":{"confidence":0.75,"id":"osm-node-13608382101","last_confirmed":"UNKNOWN","source":"OpenStreetMap/Overpass","status":"ACTIVE","type":"ALPR","vendor":"Flock Safety","verification_state":"PROBABLE"},"type":"Feature"},{"geometry":{"coordinates":[-90.5472659,37.8728512],"type":"Point"},"id":"osm-node-13772859102","properties":{"confidence":0.75,"id":"osm-node-13772859102","last_confirmed":"UNKNOWN","source":"OpenStreetMap/Overpass","status":"ACTIVE","type":"ALPR","vendor":"Flock Safety","verification_state":"PROBABLE"},"type":"Feature"},{"geometry":{"coordinates":[-90.5222065,37.8611642],"type":"Point"},"id":"osm-node-13772871401","properties":{"confidence":0.75,"id":"osm-node-13772871401","last_confirmed":"UNKNOWN","source":"OpenStreetMap/Overpass","status":"ACTIVE","type":"ALPR","vendor":"Flock Safety","verification_state":"PROBABLE"},"type":"Feature"},{"geometry":{"coordinates":[-90.5383224,37.8280293],"type":"Point"},"id":"osm-node-13772875601","properties":{"confidence":0.75,"id":"osm-node-13772875601","last_confirmed":"UNKNOWN","source":"OpenStreetMap/Overpass","status":"ACTIVE","type":"ALPR","vendor":"Flock Safety","verification_state":"PROBABLE"},"type":"Feature"},{"geometry":{"coordinates":[-90.645887,37.8687621],"type":"Point"},"id":"osm-node-13796437601","properties":{"confidence":0.75,"id":"osm-node-13796437601","last_confirmed":"UNKNOWN","source":"OpenStreetMap/Overpass","status":"ACTIVE","type":"ALPR","vendor":"Flock Safety","verification_state":"PROBABLE"},"type":"Feature"},{"geometry":{"coordinates":[-90.4403736,37.7999221],"type":"Point"},"id":"osm-node-13809662601","properties":{"confidence":0.75,"id":"osm-node-13809662601","last_confirmed":"UNKNOWN","source":"OpenStreetMap/Overpass","status":"ACTIVE","type":"ALPR","vendor":"Flock Safety","verification_state":"PROBABLE"},"type":"Feature"},{"geometry":{"coordinates":[-90.43141,37.7918782],"type":"Point"},"id":"osm-node-13809664401","properties":{"confidence":0.75,"id":"osm-node-13809664401","last_confirmed":"UNKNOWN","source":"OpenStreetMap/Overpass","status":"ACTIVE","type":"ALPR","vendor":"Flock Safety","verification_state":"PROBABLE"},"type":"Feature"},{"geometry":{"coordinates":[-90.4285465,37.7905419],"type":"Point"},"id":"osm-node-13812647701","properties":{"confidence":0.75,"id":"osm-node-13812647701","last_confirmed":"UNKNOWN","source":"OpenStreetMap/Overpass","status":"ACTIVE","type":"ALPR","vendor":"Flock Safety","verification_state":"PROBABLE"},"type":"Feature"},{"geometry":{"coordinates":[-90.5270491,37.8729409],"type":"Point"},"id":"osm-node-13891937001","properties":{"confidence":0.75,"id":"osm-node-13891937001","last_confirmed":"UNKNOWN","source":"OpenStreetMap/Overpass","status":"ACTIVE","type":"ALPR","vendor":"Flock Safety","verification_state":"PROBABLE"},"type":"Feature"},{"geometry":{"coordinates":[-90.4616096,37.7749284],"type":"Point"},"id":"osm-node-13892145201","properties":{"confidence":0.75,"id":"osm-node-13892145201","last_confirmed":"UNKNOWN","source":"OpenStreetMap/Overpass","status":"ACTIVE","type":"ALPR","vendor":"Flock Safety","verification_state":"PROBABLE"},"type":"Feature"},{"geometry":{"coordinates":[-90.1874787,37.9763178],"type":"Point"},"id":"osm-node-13920916305","properties":{"confidence":0.75,"id":"osm-node-13920916305","last_confirmed":"UNKNOWN","source":"OpenStreetMap/Overpass","status":"ACTIVE","type":"ALPR","vendor":"Flock Safety","verification_state":"PROBABLE"},"type":"Feature"},{"geometry":{"coordinates":[-90.5336737,37.8607036],"type":"Point"},"id":"osm-node-13950910801","properties":{"confidence":0.75,"id":"osm-node-13950910801","last_confirmed":"UNKNOWN","source":"OpenStreetMap/Overpass","status":"ACTIVE","type":"ALPR","vendor":"Flock Safety","verification_state":"PROBABLE"},"type":"Feature"},{"geometry":{"coordinates":[-90.6407437,37.8678722],"type":"Point"},"id":"osm-node-13961030601","properties":{"confidence":0.75,"id":"osm-node-13961030601","last_confirmed":"UNKNOWN","source":"OpenStreetMap/Overpass","status":"ACTIVE","type":"ALPR","vendor":"Flock Safety","verification_state":"PROBABLE"},"type":"Feature"},{"geometry":{"coordinates":[-90.6402974,37.8679816],"type":"Point"},"id":"osm-node-13961030702","properties":{"confidence":0.75,"id":"osm-node-13961030702","last_confirmed":"UNKNOWN","source":"OpenStreetMap/Overpass","status":"ACTIVE","type":"ALPR","vendor":"Flock Safety","verification_state":"PROBABLE"},"type":"Feature"},{"geometry":{"coordinates":[-90.5328522,37.9913791],"type":"Point"},"id":"osm-node-13969611501","properties":{"confidence":0.75,"id":"osm-node-13969611501","last_confirmed":"UNKNOWN","source":"OpenStreetMap/Overpass","status":"ACTIVE","type":"ALPR","vendor":"Flock Safety","verification_state":"PROBABLE"},"type":"Feature"},{"geometry":{"coordinates":[-90.4918118,38.0077973],"type":"Point"},"id":"osm-node-13981340601","properties":{"confidence":0.75,"id":"osm-node-13981340601","last_confirmed":"UNKNOWN","source":"OpenStreetMap/Overpass","status":"ACTIVE","type":"ALPR","vendor":"Flock Safety","verification_state":"PROBABLE"},"type":"Feature"},{"geometry":{"coordinates":[-90.6164531,37.9313001],"type":"Point"},"id":"osm-node-14003623501","properties":{"confidence":0.75,"id":"osm-node-14003623501","last_confirmed":"UNKNOWN","source":"OpenStreetMap/Overpass","status":"ACTIVE","type":"ALPR","vendor":"Flock Safety","verification_state":"PROBABLE"},"type":"Feature"},{"geometry":{"coordinates":[-90.5504007,37.9230864],"type":"Point"},"id":"osm-node-14039935306","properties":{"confidence":0.75,"id":"osm-node-14039935306","last_confirmed":"UNKNOWN","source":"OpenStreetMap/Overpass","status":"ACTIVE","type":"ALPR","vendor":"Flock Safety","verification_state":"PROBABLE"},"type":"Feature"},{"geometry":{"coordinates":[-90.5491548,37.9093476],"type":"Point"},"id":"osm-node-14039949101","properties":{"confidence":0.75,"id":"osm-node-14039949101","last_confirmed":"UNKNOWN","source":"OpenStreetMap/Overpass","status":"ACTIVE","type":"ALPR","vendor":"Motorola Solutions","verification_state":"PROBABLE"},"type":"Feature"},{"geometry":{"coordinates":[-90.6444094,37.9524513],"type":"Point"},"id":"osm-node-14040410301","properties":{"confidence":0.75,"id":"osm-node-14040410301","last_confirmed":"UNKNOWN","source":"OpenStreetMap/Overpass","status":"ACTIVE","type":"ALPR","vendor":"Flock Safety","verification_state":"PROBABLE"},"type":"Feature"}],"metadata":{"absence_semantic":"NO_KNOWN_RECORDS_ONLY","attribution":"© OpenStreetMap contributors","copyright_url":"https://www.openstreetmap.org/copyright","license":"ODbL 1.0","record_count":58,"schema":"wayveil-public-alpr-map-v1","snapshot_date":"2026-08-10","source":"OpenStreetMap via Overpass API","surveillance_db_sha256":"966930047b22c94054dfa28f57e25033a968c02ee0a736ceef457e3ba3dcfa4d","verification_counts":{"PROBABLE":58}},"type":"FeatureCollection"}